GLOBALSTAR M057         
1 25943U 99058A   25047.90747364 -.00000012  00000+0  73167-3 0  9992
2 25943  52.0012 329.5570 0002807 119.3835 240.7295 12.24812158152194
GLOBALSTAR M059         
1 25944U 99058B   25048.08531985 -.00000060  00000+0  32676-3 0  9996
2 25944  52.0004 172.0856 0001258 103.4440  67.0220 11.99973773148374
GLOBALSTAR M031         
1 25946U 99058D   25048.24395984 -.00000083  00000+0  79310-4 0  9995
2 25946  51.9960  76.2072 0001058 286.7895 152.4254 12.16028770150194
GLOBALSTAR M039         
1 25961U 99062A   25047.88989303 -.00000064  00000+0  22265-3 0  9995
2 25961  51.9838 275.1202 0003596  81.0863 279.0410 12.62318716165021
GLOBALSTAR M034         
1 25962U 99062B   25047.95067154  .00000028  00000+0  17245-2 0  9995
2 25962  51.9901 323.9359 0013867 171.5683 270.0271 11.79444303124205
GLOBALSTAR M061         
1 25964U 99062D   25048.17361292 -.00000053  00000+0  44418-3 0  9994
2 25964  51.9784 145.7954 0006771 102.5761 262.7194 11.76770692107342
